GSAT0101 (GALILEO-PFM)  
1 37846U 11060A   25030.14493904 -.00000072  00000+0  00000+0 0  9998
2 37846  57.1161 355.3931 0003709 338.6167  21.3567  1.70475644 82544
GSAT0102 (GALILEO-FM2)  
1 37847U 11060B   25029.77989308 -.00000072  00000+0  00000+0 0  9994
2 37847  57.1155 355.4031 0004963 318.9579 222.2691  1.70475793 82546
GSAT0103 (GALILEO-FM3)  
1 38857U 12055A   25030.18459593  .00000002  00000+0  00000+0 0  9998
2 38857  55.5143 115.3645 0005073 270.9600  89.0244  1.70473249 76434
GSAT0201 (GALILEO 5)    
1 40128U 14050A   25031.61956810 -.00000030  00000+0  00000+0 0  9994
2 40128  49.4174 293.8566 1618919 160.0324 207.1520  1.85519522 69017
GSAT0202 (GALILEO 6)    
1 40129U 14050B   25030.79899904 -.00000023  00000+0  00000+0 0  9995
2 40129  49.4341 292.9698 1618298 160.8021 206.1221  1.85520328 71164
GSAT0203 (GALILEO 7)    
1 40544U 15017A   25031.09686306 -.00000074  00000+0  00000+0 0  9990
2 40544  56.9106 355.2702 0005666 283.0207  76.9055  1.70475579 60648
GSAT0204 (GALILEO 8)    
1 40545U 15017B   25031.35162921 -.00000075  00000+0  00000+0 0  9993
2 40545  56.9173 355.2797 0005137 273.9398  85.9912  1.70475355 23697
GSAT0205 (GALILEO 9)    
1 40889U 15045A   25030.53370999  .00000086  00000+0  00000+0 0  9991
2 40889  55.1250 235.4876 0006441  45.2977 314.8017  1.70473350 58448
GSAT0206 (GALILEO 10)   
1 40890U 15045B   25031.34090061  .00000082  00000+0  00000+0 0  9998
2 40890  55.1201 235.4607 0004307  46.8320 313.2441  1.70473361 58486
GSAT0209 (GALILEO 12)   
1 41174U 15079A   25029.16338613 -.00000002  00000+0  00000+0 0  9999
2 41174  55.5334 115.1042 0003934 308.2478  51.7527  1.70474583 56185
GSAT0208 (GALILEO 11)   
1 41175U 15079B   25026.45036022 -.00000012  00000+0  00000+0 0  9999
2 41175  55.5301 115.1764 0002726 314.3313  45.6652  1.70474593 56558
GSAT0211 (GALILEO 14)   
1 41549U 16030A   25031.26665509  .00000082  00000+0  00000+0 0  9991
2 41549  55.2706 235.4983 0003900  24.7479 335.3117  1.70473362 54093
GSAT0210 (GALILEO 13)   
1 41550U 16030B   25030.93790186  .00000084  00000+0  00000+0 0  9998
2 41550  55.2678 235.5059 0000753 154.3488 205.6985  1.70473682 54087
GSAT0207 (GALILEO 15)   
1 41859U 16069A   25030.63004272  .00000003  00000+0  00000+0 0  9994
2 41859  55.2008 115.0098 0003829 296.1327  63.8735  1.70474586 50835
GSAT0212 (GALILEO 16)   
1 41860U 16069B   25031.07065874  .00000004  00000+0  00000+0 0  9991
2 41860  55.1986 114.9935 0002114 330.8306  29.2056  1.70474807 51095
GSAT0213 (GALILEO 17)   
1 41861U 16069C   25020.29378988 -.00000014  00000+0  00000+0 0  9999
2 41861  55.1958 115.2998 0003789 273.5365  86.4371  1.70475196 50901
GSAT0214 (GALILEO 18)   
1 41862U 16069D   25028.65140820 -.00000005  00000+0  00000+0 0  9990
2 41862  55.1982 115.0612 0002819 273.5542  86.4456  1.70475020 51046
GSAT0215 (GALILEO 19)   
1 43055U 17079A   25029.72814856  .00000092  00000+0  00000+0 0  9999
2 43055  55.2459 235.3597 0001145  26.1617 333.8974  1.70474116 44407
GSAT0216 (GALILEO 20)   
1 43056U 17079B   25031.19281464  .00000083  00000+0  00000+0 0  9997
2 43056  55.2459 235.3192 0001817 332.6295  27.4020  1.70474249 44441
GSAT0217 (GALILEO 21)   
1 43057U 17079C   25029.65365624  .00000092  00000+0  00000+0 0  9997
2 43057  55.2447 235.3601 0002488   0.0593 359.9947  1.70474192 44400
GSAT0218 (GALILEO 22)   
1 43058U 17079D   25030.46026973  .00000087  00000+0  00000+0 0  9994
2 43058  55.2445 235.3355 0001959 317.1569  42.8751  1.70474168 44440
GSAT0221 (GALILEO 25)   
1 43564U 18060A   25030.94804996 -.00000073  00000+0  00000+0 0  9995
2 43564  57.2910 355.3322 0006232 293.5390  66.3846  1.70475411 40608
GSAT0222 (GALILEO 26)   
1 43565U 18060B   25029.40713912 -.00000071  00000+0  00000+0 0  9990
2 43565  57.2949 355.3760 0005116 273.9224  86.0082  1.70475167 40626
GSAT0219 (GALILEO 23)   
1 43566U 18060C   25030.21527790 -.00000072  00000+0  00000+0 0  9990
2 43566  57.2941 355.3559 0005544 300.9788  58.9556  1.70475409 40618
GSAT0220 (GALILEO 24)   
1 43567U 18060D   25025.74336603 -.00000072  00000+0  00000+0 0  9994
2 43567  57.2942 355.4770 0005709 296.0900  63.8452  1.70475650 40528
GSAT0223 (GALILEO 27)   
1 49809U 21116A   25030.57964538 -.00000073  00000+0  00000+0 0  9997
2 49809  57.2839 355.2396 0003352 264.3355 274.2969  1.70475434 19611
GSAT0224 (GALILEO 28)   
1 49810U 21116B   25030.97945372 -.00000073  00000+0  00000+0 0  9998
2 49810  57.2846 355.2275 0002712 276.4487 260.0895  1.70475281 19640
GSAT0225 (GALILEO 29)   
1 59598U 24079A   25030.10952091  .00000001  00000+0  00000+0 0  9994
2 59598  54.8182 115.1569 0002837 211.6387 142.4266  1.70475029  4736
GSAT0227 (GALILEO 30)   
1 59600U 24079C   25029.71601105 -.00000001  00000+0  00000+0 0  9991
2 59600  54.8123 115.1674 0001661 139.8375 220.2137  1.70474953  4786
GSAT0232 (GALILEO 32)   
1 61182U 24167A   25029.69084057  .00000092  00000+0  00000+0 0  9994
2 61182  55.3552 235.1273 0001740 172.8232   7.1717  1.70473707  2297
GSAT0226 (GALILEO 31)   
1 61183U 24167B   25030.68030907  .00000086  00000+0  00000+0 0  9994
2 61183  55.3536 235.1056 0002011 103.2733  76.5211  1.70473682  2285
